ONEWEB-0116             
1 48046U 21025E   24354.76270311 -.00000063  00000+0 -20873-3 0  9990
2 48046  87.8929  68.4817 0001674  98.7393 261.3925 13.13468702182181
ONEWEB-0150             
1 48047U 21025F   24355.19436896  .00000310  00000+0  81513-3 0  9992
2 48047  87.8921  68.4036 0001922 104.5077 255.6265 13.13472203182137
ONEWEB-0107             
1 48048U 21025G   24354.73889397  .00000408  00000+0  10819-2 0  9998
2 48048  87.8920  68.4922 0001904 116.3852 243.7473 13.13470279182054
ONEWEB-0101             
1 48049U 21025H   24354.70238332 -.00000254  00000+0 -73107-3 0  9994
2 48049  87.8925  68.5265 0001700 107.6283 252.5032 13.13471477182023
ONEWEB-0113             
1 48050U 21025J   24354.75635060  .00000107  00000+0  25834-3 0  9999
2 48050  87.8925  68.4965 0001719  99.6128 260.5195 13.13470426182111
ONEWEB-0112             
1 48051U 21025K   24354.74366351  .00000408  00000+0  10831-2 0  9997
2 48051  87.8920  68.4885 0001825 102.8798 257.2535 13.13469401182129
ONEWEB-0156             
1 48052U 21025L   24355.13406932  .00000285  00000+0  74537-3 0  9999
2 48052  87.8922  68.4151 0001812 103.5068 256.6264 13.13470730182165
ONEWEB-0161             
1 48053U 21025M   24355.18326903  .00000108  00000+0  26109-3 0  9990
2 48053  87.8927  68.4173 0001796 108.2148 251.9177 13.13470811182102
